DMSP 5D-3 F16 (USA 172) 
1 28054U 03048A   26201.98602037 -.00000061  00000+0 -80752-5 0  9995
2 28054  98.9896 226.0367 0007953  56.8337  52.0581 14.14484673174265
METEOSAT-9 (MSG-2)      
1 28912U 05049B   26201.69865962  .00000117  00000+0  00000+0 0  9999
2 28912   9.4354  53.8329 0002453 359.2065 182.6386  1.00275262  7335
DMSP 5D-3 F17 (USA 191) 
1 29522U 06050A   26201.96964043 -.00000010  00000+0  17280-4 0  9996
2 29522  98.7390 207.8500 0009394 325.5407  34.5156 14.14996434 17200
FENGYUN 3A              
1 32958U 08026A   26201.80885957  .00000035  00000+0  37299-4 0  9995
2 32958  98.6886 142.0143 0009454  37.1178 323.0651 14.19577262940173
EWS-G3 (GOES 14)        
1 35491U 09033A   26201.92752701 -.00000360  00000+0  00000+0 0  9999
2 35491   1.7746  82.6256 0002156  39.0794 272.3629  1.00095663  6922
DMSP 5D-3 F18 (USA 210) 
1 35951U 09057A   26201.94311881  .00000211  00000+0  13208-3 0  9990
2 35951  98.9061 182.6430 0011555 149.6940 210.4904 14.14914375864368
EWS-G2 (GOES 15)        
1 36411U 10008A   26201.91600029  .00000022  00000+0  00000+0 0  9994
2 36411   1.3686  82.3995 0005449  53.6341 195.6588  1.00269471 59973
COMS 1                  
1 36744U 10032A   26201.46408896 -.00000193  00000+0  00000+0 0  9998
2 36744   4.8887  74.9552 0011444  15.1250 316.3410  0.99166737 51418
FENGYUN 3B              
1 37214U 10059A   26201.97699168 -.00000013  00000+0  16369-4 0  9991
2 37214  98.9601 248.1315 0023220  91.1327  27.1140 14.14848233812204
SUOMI NPP               
1 37849U 11061A   26201.96232339  .00000045  00000+0  42443-4 0  9997
2 37849  98.7956 142.6089 0001041 188.0050 172.1110 14.19523455763238
METEOSAT-10 (MSG-3)     
1 38552U 12035B   26201.83218766 -.00000010  00000+0  00000+0 0  9996
2 38552   4.7494  60.8541 0001426  18.3366 159.0425  1.00272616 51194
METOP-B                 
1 38771U 12049A   26201.90682351  .00000042  00000+0  38795-4 0  9998
2 38771  98.6485 252.7301 0001304 225.0331 135.0741 14.21447449718054
INSAT-3D                
1 39216U 13038B   26201.92908701 -.00000340  00000+0  00000+0 0  9999
2 39216   2.0112  82.1152 0001053  42.5460 278.0032  1.00273612 47418
FENGYUN 3C              
1 39260U 13052A   26201.89633667  .00000076  00000+0  59648-4 0  9998
2 39260  98.5004 174.2277 0013495 288.3030  71.6677 14.15761629663331
METEOR-M 2              
1 40069U 14037A   26201.93270293 -.00000236  00000+0 -88560-4 0  9993
2 40069  98.5142 176.4800 0004783 307.2822  52.7920 14.21469223624115
HIMAWARI-8              
1 40267U 14060A   26201.60739126 -.00000277  00000+0  00000+0 0  9990
2 40267   0.0153  53.1610 0001276 108.7255 135.8056  1.00270174 43096
FENGYUN 2G              
1 40367U 14090A   26200.64000413 -.00000309  00000+0  00000+0 0  9993
2 40367   5.7192  72.4242 0003943 173.6464  21.2039  1.00279249 42329
METEOSAT-11 (MSG-4)     
1 40732U 15034A   26201.83400767  .00000060  00000+0  00000+0 0  9999
2 40732   3.2825  70.8910 0002022 355.3658 181.8591  1.00273620  7555
ELEKTRO-L 2             
1 41105U 15074A   26201.82932766 -.00000122  00000+0  00000+0 0  9996
2 41105   6.7766  70.1096 0000802 228.6874 283.8681  1.00272327 38848
SENTINEL-3A             
1 41335U 16011A   26201.94901229  .00000034  00000+0  32107-4 0  9995
2 41335  98.6232 268.8448 0001309  88.9679 271.1651 14.26740781542877
INSAT-3DR               
1 41752U 16054A   26201.91816697 -.00000077  00000+0  00000+0 0  9996
2 41752   0.0840  89.1312 0010335 180.3810  73.6966  1.00271511 36150
HIMAWARI-9              
1 41836U 16064A   26201.60739126 -.00000276  00000+0  00000+0 0  9998
2 41836   0.0199 292.3424 0001703 228.4234 137.0075  1.00273013 35542
GOES 16                 
1 41866U 16071A   26201.88275111 -.00000091  00000+0  00000+0 0  9993
2 41866   0.4183  85.4570 0000658  73.1858 353.0959  1.00271689 35447
FENGYUN 4A              
1 41882U 16077A   26201.92796035 -.00000359  00000+0  00000+0 0  9992
2 41882   2.4063  79.9011 0008189 159.4632 157.0469  1.00265625 35268
CYGFM05                 
1 41884U 16078A   26201.89668170  .00019167  00000+0  24700-3 0  9992
2 41884  34.9575  37.1242 0005287 100.2193 259.9128 15.58038315534015
CYGFM04                 
1 41885U 16078B   26201.69388319  .00023318  00000+0  24495-3 0  9999
2 41885  34.9331   4.4017 0004277 149.0942 211.0036 15.63317465534248
CYGFM02                 
1 41886U 16078C   26201.69058210  .00028676  00000+0  26335-3 0  9991
2 41886  34.9411 357.9232 0005031 150.2375 209.8639 15.66648843534420
CYGFM01                 
1 41887U 16078D   26201.80611199  .00019896  00000+0  24942-3 0  9992
2 41887  34.9404  38.5009 0005150  91.0871 269.0444 15.58760852533957
CYGFM08                 
1 41888U 16078E   26201.76927770  .00022229  00000+0  24894-3 0  9993
2 41888  34.9439  17.3993 0005992 130.9549 229.1696 15.61678238534229
CYGFM07                 
1 41890U 16078G   26201.66228281  .00021192  00000+0  23649-3 0  9991
2 41890  34.9455   6.4248 0004713 148.0237 212.0775 15.61782712534239
CYGFM03                 
1 41891U 16078H   26201.69745317  .00021593  00000+0  24109-3 0  9996
2 41891  34.9410   8.1183 0004345 130.9389 229.1713 15.61770161534211
